{
  "norad_id": 52560,
  "name": "STARLINK-3956",
  "history": [
    {
      "epoch": "2026-03-28T03:06:23.102784Z",
      "apogee_km": 541.1039801964052,
      "perigee_km": 538.3813794696107,
      "latitude_deg": 1.751889596751437e-05,
      "longitude_deg": 164.18883976757945,
      "height_km": 540.9735656982729,
      "semi_major_axis_km": 6917.879679833008,
      "eccentricity": 0.00019678,
      "inclination_deg": 53.2199,
      "raan_deg": 36.3394,
      "arg_perigee_deg": 104.2766,
      "mean_anomaly_deg": 255.8445,
      "mean_motion_rev_day": 15.08840232
    },
    {
      "epoch": "2026-03-29T02:57:09.275328Z",
      "apogee_km": 541.0101868325701,
      "perigee_km": 538.4242929177035,
      "latitude_deg": 4.273752225973225e-05,
      "longitude_deg": 161.05734568570858,
      "height_km": 540.9621895961516,
      "semi_major_axis_km": 6917.854239875136,
      "eccentricity": 0.0001869,
      "inclination_deg": 53.2208,
      "raan_deg": 31.8796,
      "arg_perigee_deg": 105.6835,
      "mean_anomaly_deg": 254.4364,
      "mean_motion_rev_day": 15.08848555
    },
    {
      "epoch": "2026-03-30T01:12:33.695136Z",
      "apogee_km": 541.0295971072073,
      "perigee_km": 538.4995821378498,
      "latitude_deg": 7.011554868114195e-05,
      "longitude_deg": -177.8729362649353,
      "height_km": 541.0399158871885,
      "semi_major_axis_km": 6917.901589622528,
      "eccentricity": 0.00018286,
      "inclination_deg": 53.2199,
      "raan_deg": 27.7151,
      "arg_perigee_deg": 107.4773,
      "mean_anomaly_deg": 252.642,
      "mean_motion_rev_day": 15.08833064
    },
    {
      "epoch": "2026-03-30T12:20:15.965952Z",
      "apogee_km": 540.8856185269269,
      "perigee_km": 538.6462933400908,
      "latitude_deg": 2.104565151366468e-07,
      "longitude_deg": 12.662256399950111,
      "height_km": 540.754369564449,
      "semi_major_axis_km": 6917.902955933509,
      "eccentricity": 0.00016185,
      "inclination_deg": 53.2188,
      "raan_deg": 25.6335,
      "arg_perigee_deg": 94.7603,
      "mean_anomaly_deg": 265.3574,
      "mean_motion_rev_day": 15.08832617
    },
    {
      "epoch": "2026-03-30T20:17:11.855040Z",
      "apogee_km": 540.9358091636204,
      "perigee_km": 538.5830325908801,
      "latitude_deg": 1.287156752520519e-05,
      "longitude_deg": -108.3837530056767,
      "height_km": 540.70699341073,
      "semi_major_axis_km": 6917.89642087725,
      "eccentricity": 0.00017005,
      "inclination_deg": 53.2194,
      "raan_deg": 24.1468,
      "arg_perigee_deg": 92.5401,
      "mean_anomaly_deg": 267.5786,
      "mean_motion_rev_day": 15.08834755
    },
    {
      "epoch": "2026-03-31T12:11:03.210720Z",
      "apogee_km": 540.8387360210318,
      "perigee_km": 538.6558668085645,
      "latitude_deg": 5.4634807726331504e-05,
      "longitude_deg": 9.530605752231404,
      "height_km": 540.9777552106666,
      "semi_major_axis_km": 6917.884301414798,
      "eccentricity": 0.00015777,
      "inclination_deg": 53.2194,
      "raan_deg": 21.178,
      "arg_perigee_deg": 107.8607,
      "mean_anomaly_deg": 252.2558,
      "mean_motion_rev_day": 15.0883872
    },
    {
      "epoch": "2026-04-01T12:01:50.571264Z",
      "apogee_km": 540.8083801889279,
      "perigee_km": 538.7039570870293,
      "latitude_deg": -1.1428976937909797e-05,
      "longitude_deg": 6.393181839974127,
      "height_km": 540.7172828386501,
      "semi_major_axis_km": 6917.893168637978,
      "eccentricity": 0.0001521,
      "inclination_deg": 53.2203,
      "raan_deg": 16.7173,
      "arg_perigee_deg": 93.5592,
      "mean_anomaly_deg": 266.5574,
      "mean_motion_rev_day": 15.08835819
    },
    {
      "epoch": "2026-04-02T11:52:37.413408Z",
      "apogee_km": 540.7502873773619,
      "perigee_km": 538.7388441333032,
      "latitude_deg": 1.7504127580957755e-05,
      "longitude_deg": 3.2564941197377366,
      "height_km": 540.5342400278621,
      "semi_major_axis_km": 6917.881565755332,
      "eccentricity": 0.00014538,
      "inclination_deg": 53.2185,
      "raan_deg": 12.2551,
      "arg_perigee_deg": 83.9483,
      "mean_anomaly_deg": 276.1675,
      "mean_motion_rev_day": 15.08839615
    },
    {
      "epoch": "2026-04-02T23:00:19.139040Z",
      "apogee_km": 540.7367680251073,
      "perigee_km": 538.7449726286832,
      "latitude_deg": -4.973430260093889e-06,
      "longitude_deg": -166.20610034880062,
      "height_km": 540.5261111447699,
      "semi_major_axis_km": 6917.877870326895,
      "eccentricity": 0.00014396,
      "inclination_deg": 53.2182,
      "raan_deg": 10.1734,
      "arg_perigee_deg": 83.6322,
      "mean_anomaly_deg": 276.4834,
      "mean_motion_rev_day": 15.08840824
    },
    {
      "epoch": "2026-04-03T11:43:24.698784Z",
      "apogee_km": 540.8532148718659,
      "perigee_km": 538.6476540000203,
      "latitude_deg": 1.5770420139873673e-05,
      "longitude_deg": 0.11963109883340513,
      "height_km": 540.637889779759,
      "semi_major_axis_km": 6917.887434435943,
      "eccentricity": 0.00015941,
      "inclination_deg": 53.2182,
      "raan_deg": 7.7946,
      "arg_perigee_deg": 89.5841,
      "mean_anomaly_deg": 270.5334,
      "mean_motion_rev_day": 15.08837695
    },
    {
      "epoch": "2026-04-04T03:37:16.014720Z",
      "apogee_km": 540.8037500892933,
      "perigee_km": 538.6800996169422,
      "latitude_deg": 1.2334129391694112e-05,
      "longitude_deg": 118.02552123157028,
      "height_km": 540.9599856069725,
      "semi_major_axis_km": 6917.8789248531175,
      "eccentricity": 0.00015349,
      "inclination_deg": 53.2203,
      "raan_deg": 4.8172,
      "arg_perigee_deg": 107.6641,
      "mean_anomaly_deg": 252.4519,
      "mean_motion_rev_day": 15.08840479
    },
    {
      "epoch": "2026-04-04T21:06:29.776320Z",
      "apogee_km": 540.6232998370697,
      "perigee_km": 538.8300512151,
      "latitude_deg": -1.7091901011463386e-05,
      "longitude_deg": -148.26981331634346,
      "height_km": 540.8646821203112,
      "semi_major_axis_km": 6917.863675526085,
      "eccentricity": 0.00012961,
      "inclination_deg": 53.2181,
      "raan_deg": 1.5474,
      "arg_perigee_deg": 105.6631,
      "mean_anomaly_deg": 254.4504,
      "mean_motion_rev_day": 15.08845468
    },
    {
      "epoch": "2026-04-05T20:57:17.328672Z",
      "apogee_km": 540.6979138158877,
      "perigee_km": 538.8245469750964,
      "latitude_deg": -3.9521637584899146e-05,
      "longitude_deg": -151.40650916491143,
      "height_km": 540.912304353838,
      "semi_major_axis_km": 6917.898230395492,
      "eccentricity": 0.0001354,
      "inclination_deg": 53.2181,
      "raan_deg": 357.0882,
      "arg_perigee_deg": 105.8111,
      "mean_anomaly_deg": 254.303,
      "mean_motion_rev_day": 15.08834163
    },
    {
      "epoch": "2026-04-06T00:08:03.671520Z",
      "apogee_km": 540.6965971496747,
      "perigee_km": 538.8255824323096,
      "latitude_deg": 1.4794824336451902e-05,
      "longitude_deg": 160.1769567236911,
      "height_km": 540.714824282432,
      "semi_major_axis_km": 6917.898089790992,
      "eccentricity": 0.00013523,
      "inclination_deg": 53.218,
      "raan_deg": 356.4953,
      "arg_perigee_deg": 93.5518,
      "mean_anomaly_deg": 266.5629,
      "mean_motion_rev_day": 15.08834209
    },
    {
      "epoch": "2026-04-07T09:31:09.602688Z",
      "apogee_km": 540.6690256084776,
      "perigee_km": 538.8312197154701,
      "latitude_deg": -2.370323073589261e-05,
      "longitude_deg": 11.787738824670672,
      "height_km": 540.6754589570121,
      "semi_major_axis_km": 6917.887122661973,
      "eccentricity": 0.00013283,
      "inclination_deg": 53.2191,
      "raan_deg": 350.2519,
      "arg_perigee_deg": 91.8336,
      "mean_anomaly_deg": 268.2808,
      "mean_motion_rev_day": 15.08837797
    },
    {
      "epoch": "2026-04-07T20:38:52.155168Z",
      "apogee_km": 540.7203494426594,
      "perigee_km": 538.8234588211471,
      "latitude_deg": -8.151216507932278e-06,
      "longitude_deg": -157.6777836852825,
      "height_km": 540.7119117416297,
      "semi_major_axis_km": 6917.908904131903,
      "eccentricity": 0.0001371,
      "inclination_deg": 53.2195,
      "raan_deg": 348.1707,
      "arg_perigee_deg": 92.6647,
      "mean_anomaly_deg": 267.4502,
      "mean_motion_rev_day": 15.08830671
    },
    {
      "epoch": "2026-04-07T23:49:38.468640Z",
      "apogee_km": 540.72035758732,
      "perigee_km": 538.8222219107784,
      "latitude_deg": -1.924715047869005e-05,
      "longitude_deg": 153.90375615720873,
      "height_km": 540.7063784870859,
      "semi_major_axis_km": 6917.908289749049,
      "eccentricity": 0.00013719,
      "inclination_deg": 53.2195,
      "raan_deg": 347.5758,
      "arg_perigee_deg": 92.3657,
      "mean_anomaly_deg": 267.7492,
      "mean_motion_rev_day": 15.08830872
    },
    {
      "epoch": "2026-04-09T09:12:43.820928Z",
      "apogee_km": 540.7424829535967,
      "perigee_km": 538.7448757286302,
      "latitude_deg": 3.183941657118931e-05,
      "longitude_deg": 5.515622869974149,
      "height_km": 540.6286765670841,
      "semi_major_axis_km": 6917.880679341113,
      "eccentricity": 0.00014438,
      "inclination_deg": 53.2204,
      "raan_deg": 341.331,
      "arg_perigee_deg": 89.3743,
      "mean_anomaly_deg": 270.7415,
      "mean_motion_rev_day": 15.08839905
    },
    {
      "epoch": "2026-04-10T09:03:30.970656Z",
      "apogee_km": 540.7472097248146,
      "perigee_km": 538.735490700572,
      "latitude_deg": 4.926029171212123e-05,
      "longitude_deg": 2.378837829062173,
      "height_km": 540.5700355909532,
      "semi_major_axis_km": 6917.878350212693,
      "eccentricity": 0.0001454,
      "inclination_deg": 53.2197,
      "raan_deg": 336.87,
      "arg_perigee_deg": 86.1731,
      "mean_anomaly_deg": 273.9428,
      "mean_motion_rev_day": 15.08840667
    }
  ]
}